{
  "norad_id": 61921,
  "name": "STARLINK-32605",
  "history": [
    {
      "epoch": "2026-03-28T17:07:23.496096Z",
      "apogee_km": 483.9307258014951,
      "perigee_km": 481.9536372245493,
      "latitude_deg": -4.381802248151181e-06,
      "longitude_deg": 91.14323451003868,
      "height_km": 482.8004626746979,
      "semi_major_axis_km": 6861.0791815130215,
      "eccentricity": 0.00014408,
      "inclination_deg": 42.9986,
      "raan_deg": 174.1211,
      "arg_perigee_deg": 265.2581,
      "mean_anomaly_deg": 94.8106,
      "mean_motion_rev_day": 15.27615706
    },
    {
      "epoch": "2026-03-29T05:40:39.302400Z",
      "apogee_km": 483.80497180368275,
      "perigee_km": 482.3023710466414,
      "latitude_deg": -9.317556585751677e-06,
      "longitude_deg": -100.64342084748826,
      "height_km": 482.8229000688428,
      "semi_major_axis_km": 6861.190671425162,
      "eccentricity": 0.0001095,
      "inclination_deg": 43.0009,
      "raan_deg": 171.1659,
      "arg_perigee_deg": 270.558,
      "mean_anomaly_deg": 89.5146,
      "mean_motion_rev_day": 15.27578472
    },
    {
      "epoch": "2026-03-30T06:47:09.714912Z",
      "apogee_km": 484.62344578816464,
      "perigee_km": 481.32174262923945,
      "latitude_deg": 2.1611846442032805e-05,
      "longitude_deg": -124.20927326413494,
      "height_km": 482.2148952822775,
      "semi_major_axis_km": 6861.109594208701,
      "eccentricity": 0.00024061,
      "inclination_deg": 43.0004,
      "raan_deg": 165.2579,
      "arg_perigee_deg": 288.9165,
      "mean_anomaly_deg": 71.1426,
      "mean_motion_rev_day": 15.27605549
    },
    {
      "epoch": "2026-03-30T13:03:46.982592Z",
      "apogee_km": 484.0213756287267,
      "perigee_km": 481.94588663780814,
      "latitude_deg": 1.719262125718533e-05,
      "longitude_deg": 139.90085232359803,
      "height_km": 482.6831944601109,
      "semi_major_axis_km": 6861.120631133267,
      "eccentricity": 0.00015125,
      "inclination_deg": 43.0,
      "raan_deg": 163.7811,
      "arg_perigee_deg": 274.2682,
      "mean_anomaly_deg": 85.7997,
      "mean_motion_rev_day": 15.27601863
    }
  ]
}